ONEWEB-0320             
1 49190U 21083E   25294.51744061  .00000053  00000+0  10066-3 0  9990
2 49190  87.9236  22.8675 0001808 101.0575 259.0760 13.18686347198527
ONEWEB-0321             
1 49191U 21083F   25294.56704670  .00000090  00000+0  19022-3 0  9990
2 49191  87.9210 322.0218 0002070 102.0130 258.1236 13.20770744205332
ONEWEB-0322             
1 49192U 21083G   25294.56717503  .00000018  00000+0  13880-4 0  9997
2 49192  87.9033   7.6791 0002028 115.5320 244.6019 13.13471534199597
ONEWEB-0324             
1 49193U 21083H   25294.50418248  .00000095  00000+0  20761-3 0  9996
2 49193  87.9228  22.8485 0001947  98.1576 261.9778 13.18685552198541
ONEWEB-0325             
1 49194U 21083J   25294.50748879  .00000063  00000+0  12746-3 0  9992
2 49194  87.9232  22.8664 0001857 103.7838 256.3501 13.18685808198557
ONEWEB-0326             
1 49195U 21083K   25294.52245592  .00000125  00000+0  28505-3 0  9998
2 49195  87.9233  22.8512 0001549  92.9998 267.1311 13.18685306198546
ONEWEB-0327             
1 49196U 21083L   25294.52219649  .00000033  00000+0  51225-4 0  9997
2 49196  87.9221  22.8745 0001443  96.9335 263.1961 13.18685546198569
ONEWEB-0328             
1 49197U 21083M   25294.48082761 -.00000132  00000+0 -39753-3 0  9999
2 49197  87.9045   7.6371 0001930  97.8188 262.3160 13.13472275199568
